id,"name","company","image","prefecture",area_id,"license","license_2","license_3","license_4","license_5","address","curriculum","point","group","other","created_at","updated_at",latitude,longitude
1,"日本ドローンアカデミー　札幌校","株式会社ENBUゼミナール","01.sappro.png","北海道",1,"操縦",NULL,NULL,NULL,NULL,"北海道札幌市中央区大通西7-2-13","・操縦（ドローン操縦士コース）318600円","・北海道初のJUIDA認定ドローンスクール","JUIDA","http://drone-s.jp/",NULL,"2017-07-29 14:20:50",43.0591,141.347
2,"青森ドローンリンクアカデミー","アイ・ジェイ・ブレイン株式会社","02.aomori.png","青森県",2,"操縦","運行管理",NULL,NULL,NULL,"青森県青森市大字宮田字高瀬 22-2","・操縦＋運航管理（総合コース ）216000円（別途入学金：32400円）","・青森県初のJUIDA認定ドローンスクール","JUIDA","http://aomori-ac.drone-link.jp",NULL,"2017-07-29 15:48:39",40.8428,140.84
3,"岩手ドローンスクール","株式会社江刺自動車学校","03.iwate.png","岩手県",3,"操縦","運行管理",NULL,NULL,NULL,"岩手県奥州市江刺区愛宕字梁川34番地1","・操縦＋運航管理（総合プロコース ）259200円（別途入学金：32400円）","・岩手県初のJUIDA認定ドローンスクール
・受講中のPhantom4の無償貸し出し
・機体購入時の割引制度
・最新事例や技術、法規のフォローアップ 特別講演会、イベント等のご案内
・受講生、卒業生、またドローンに従事・関心を有する方の交流する機会創出","JUIDA","https://iwate-drone.com",NULL,"2017-07-29 15:49:46",39.1821,141.163
4,"山形ドローンスクール","スカイD","04.yamagata-drone.png","山形県",6,"操縦","運行管理",NULL,NULL,NULL,"山形県酒田市東町１−７−４","・操縦＋運航管理（ドローンプロコース ）248400円（別途入学金：32400円）","・山形県初のJUIDA認定ドローンスクール
・受講中のPhantom4の無償貸し出し
・機体購入時の割引制度
・最新事例や技術、法規のフォローアップ 特別講演会、イベント等のご案内
・受講生、卒業生、またドローンに従事・関心を有する方の交流する機会創出","JUIDA","https://yamagata-drone.com",NULL,"2017-07-29 15:50:28",38.9066,139.862
5,"みちのくドローンスクール　仙台校","株式會社JAPAN丸丙","05.sendai-mitinoku.png","宮城県",4,"操縦","運行管理",NULL,NULL,NULL,"宮城県仙台市青葉区上愛子字蛇台原61-4","・操縦＋運航管理（JUIDA認定講習 ）291600円
・独自カリキュラム講習準備中","・豊富な講師陣（無人航空機操縦経験が１０年以上、１０００時間以上の超ベテランから、土木関係の測量（ICT：アイ・コンストラクション（３次元計測））の実務経験者、ドローンでの空撮実務経験者を講師に迎え指導に当たります。）
・特別講習i-Construction基礎講習・スキルアップ講習（国土交通省が推奨する、建設・土木分野でのi-Construction（アイ・コンストラクション）の全面活用するための基本講習を不定期に開催します。講習内容は、建設・測量・設計会社で活躍・活用できる人材の育成を目的とした基本的な流れを習得できる独自カリキュラムです。日程、開催場所の情報は、HPにて随時ご案内いたします。 ※当スクール運営会社が提供する独自のカリキュラムで、JUIDAが認定する講習ではございません。）","JUIDA","http://school.jmaruhei.jp/",NULL,"2017-07-29 15:51:02",38.2701,140.754
6,"Hito-Robo Academy","Hito-Robo","06.hitorobo-sendai.png","宮城県",4,"操縦","運行管理",NULL,NULL,NULL,"宮城県仙台市若林区卸町3-2-3","・操縦＋運航管理（無人航空機操縦技能コース+無人航空機安全運航管理者コース ）291600円","・東北最大級の屋外練習場を完備。（50m×50mのメイン練習場と6,000平米の自主練習場の2箇所。）","JUIDA","http://hito-robo.co.jp/",NULL,"2017-07-29 15:58:19",38.2577,140.925
7,"SENDAIドローンファーム","有限会社六郷アズーリファーム","07.sendai-dronefarm.png","宮城県",4,"操縦","運行管理",NULL,NULL,NULL,"宮城県仙台市若林区井土字宅地48","・操縦＋運航管理（総合プロコース ）248400円（別途入学金：32400円）・操縦（運用コース：ベーシックコース）54000円（別途入学金：32400円）","・東北最大級の屋外練習場を完備。（50m×50mのメイン練習場と6,000平米の自主練習場の2箇所。）","JUIDA","https://sendai-drone.com",NULL,"2017-07-29 15:58:56",38.2006,140.96
8,"Ｄアカデミー東北","株式会社スリーアイバード","08.d-akademi-touhoku.png","秋田県",5,"操縦","運行管理",NULL,NULL,NULL,"秋田県南秋田郡五城目町馬場目字蓬内台117番地1","・操縦＋運航管理（操縦士技能＋安全運行管理者 4日間コース） 291600円","・屋外訓練場には、i-construction空撮測量で必要となる標定点や検証点を設置済みであり、地上測量データとの照らし合わせによる各種キャリブレーション等の用途での利用が可能","JUIDA","http://www.3eye-bird.jp",NULL,"2017-07-29 15:59:35",39.9141,140.162
9,"福島ドローンスクール","株式会社スペースワン","09.fukusima-drone.png","福島県",7,"操縦","運行管理",NULL,NULL,NULL,"福島県郡山市香久池1-17-3","・操縦＋運航管理（ドローン総合プロコース ）248400円
・運航管理（ドローン運用コース） 54000円
※受講時に入会金：32400円 別途必要。","・受講生向けのドローン割引購入特典あり
・修了後3か月間提携施設の無料利用可","JUIDA","https://fukushima-drone.com/",NULL,"2017-07-29 16:00:32",37.3814,140.371
10,"五光物流株式会社","五光物流株式会社","10.ibaraki-drone.png","茨城県",8,"操縦","運行管理",NULL,NULL,NULL,"茨城県筑西市飯島69-2","・操縦（無人航空機操縦技能コース） 367200円
・運航管理（無人航空機安全運航管理者コース） 91800円","・日本初のドローン（無人航空機）の操縦士および安全運航管理者を養成するための認定スクール。","JUIDA","http://www.goko-b.co.jp/drone/index.html",NULL,"2017-07-29 16:01:06",36.2996,139.952
11,"開校準備中／株式会社小山自動車教習所","株式会社小山自動車教習所","11.totigi-koyama.png","栃木県",9,"","",NULL,NULL,NULL,"栃木県小山市大行寺978","準備中","準備中","JUIDA","http://oyama-ds.com/",NULL,"2017-07-29 16:01:39",36.316,139.791
12,"Mighty Wings 那須塩原ドローンスクール","シーズプロデュース株式会社","12.nasu-totigi.png","栃木県",9,"操縦","運行管理",NULL,NULL,NULL,"栃木県那須塩原市塩原2193-2","・操縦＋運航管理（短期集中マンツーマンコース（3日間）388800円※1名で開講 / 短期集中ペアコース（3日間）2700000円※２名1組で開講 / じっくりコース（通学）3ヶ月【月1回 ・1日教習×3回】54000円 ※4名1組以上で開講/ ゆったりコース（通学）6ヶ月【月1回 ・半日教習×3回】30240円※4名1組以上で開講　※+4600円で宿泊プランに変更可能（各コース）","・大自然の中で広範囲な飛行実習が可能。
・マンツーマンコースでは短期間にダントツの実飛行時間を実現。
・卒業後のフォローアップ講習が充実。
・地域活性化運営のため、格安で温泉付きの宿泊プランを用意。
・産官学連携によるドローンパイロット雇用創出と人材育成を行っています。","JUIDA","http://mightyw.com/",NULL,"2017-07-29 16:02:21",36.959,139.807
13,"群馬インターネット株式会社","群馬インターネット株式会社","13.gunma-internet.png","群馬県",10,"操縦","運行管理","空撮","測量",NULL,"群馬県高崎市上中井町684","・操縦＋運航管理（JUIDA認定スクール）302400円
・測量（測量コース）53784円 
・空撮（撮影コース）53784円
・飛行申請（国交省航空局マニュアル10H）91800円
・その他（3Dスキャン 53784円 / DJI CAMP 64800円 / DJI スペシャリスト事前講習会 16200円 / DJI スペシャリスト養成 91800円 / 2.5H練習 32184円 / 初めてフライト 21384円 / フライト中級 42984円","・全長160ｍの平面的なフラットエリアと傾斜地を利用したたダウンヒルエリアの2エリアがあるので、より実践的で効果的な練習が可能
・初心者から高度なレベルを目指す方に対応した豊富なトレーニングメニューや測量や3Dスキャンなど専門的なメニューが揃う","JUIDA","http://go-japan.ne.jp/",NULL,"2017-07-29 16:02:58",36.3147,139.032
14,"Dアカデミー関東埼玉校","株式会社ジュンテクノサービス","14.d-akademi-saitama.png","埼玉県",11,"操縦","運行管理",NULL,NULL,NULL,"埼玉県川越市豊田町3-4-2","・操縦＋運航管理（総合プロコース ）259200円（別途入学金：32400円）","・３０代の若いスタッフを中心にお客様を親切丁寧にサポートします！少人数制なのでわかるまで何度でも質問できるので​、未経験者でも４日間の集中講義で十分にレベルアップできます！
・日本全国のトップYouTubeクリエイターと業務提携をしております。空撮・動画編集に関しても受講者様に体験談を踏まえた内容でお伝えします。
・当社は世界のドローントップメーカーDJI社の正規代理店です。当スクールの卒業生様には、DJI社製品全て割引サービスを行なっております。
・卒業後のフォローとして、アフタースクールを随時開催します。","JUIDA","http://www.d-academy-saitama.com",NULL,"2017-07-29 16:03:43",35.9029,139.465
15,"DRONE VILLAGE","株式会社大藤工匠","15.drone-village-tiba.png","千葉県",12,"操縦","運行管理","空撮",NULL,NULL,"千葉県八千代市島田台941-1","・操縦（JUIDA無人航空機操縦技能者コース）194400円（2017年3月末までの申し込み）
・運航管理（JUIDA 安全運航管理者コース） 54000円 
・空撮（実地研修）
・その他（ DJI スペシャリスト育成プログラム 1コマ5400円）","・学科教習と技能教習を同一施設内で実施
・総面積約3,000 ㎡に教室と屋内外用の演習施設を完備
・全天候型の総合施設","JUIDA","http://dronevillage.co.jp/",NULL,"2017-07-29 16:04:17",35.7706,140.108
16,"Futaba ドローンスクール","双葉電子工業株式会社","16.futaba-drone-tuba.png","千葉県",12,"操縦","運行管理","",NULL,NULL,"千葉県長生郡長生村薮塚1080","・操縦＋運航管理（操縦技能証明+安全運航管理者 総合取得コース）378000円
・運航管理（安全運航管理者コース）54000円 
・その他 （操縦技能証明 初心者向けコース） 324000円/ （操縦技能証明 中級者向けコース） 194400円","・ラジコン競技にて高い実績を誇るレベルの高い講師陣が揃う","JUIDA","http://www.rc.futaba.co.jp/fds/index.html",NULL,"2017-07-29 16:04:50",35.4102,140.327
17,"秋葉原ドローンスクール","田中電気株式会社","17.akihabara-drone-tokyo.png","東京都",13,"操縦","運行管理","",NULL,NULL,"東京都千代田区外神田1-16-9","・操縦＋運航管理（ドローン操縦士及び安全運行管理者養成コース）321840円
・運航管理（ドローン安全運航管理者養成コース） 86400円","・座学は都心からアクセスの良い秋葉原駅から徒歩1分の立地
・実技は埼玉県の浦和にあるサッカーコート1面分ある「田中電気グラウンド」です。","JUIDA","http://drone.tanaka-denki.co.jp/school/",NULL,"2017-07-29 16:05:26",35.6973,139.773
18,"株式会社アマナビ","株式会社アマナビ","18.png","東京都",13,"操縦","運行管理","",NULL,NULL,"東京都品川区東品川2-2-43","・操縦＋運航管理（JUIDA認定操縦技能&安全運航管理者証明証総合取得コース） 254880円
・操縦（JUIDA認定ライセンス操縦技能証明証取得コース） 213840円
・運航管理（JUIDA認定ライセンス安全運航管理者証明証取得コース） 41040円","・ビジュアルの表現に強い学校","JUIDA","http://amanabi.com",NULL,"2017-07-29 16:06:00",35.623,139.748
19,"国際航業株式会社","国際航業株式会社","19.png","東京都",13,"操縦","運行管理","","測量",NULL,"東京都府中市晴見町2-24-1","・操縦＋運航管理＋3次元計測（ドローン（UAV）運航・３次元計測スクール） 291600円","・基本的知識を学ぶ座学、基本的操縦の内容に加えて、3次元計測までカリキュラムに含まれているので3次元計測も学びたい初心者に最適","JUIDA","https://uav-school.resv.jp/",NULL,"2017-07-29 16:06:29",35.6792,139.472
20,"スカイエステート","スカイエステート株式会社","20.png","東京都",13,"操縦","運行管理","",NULL,NULL,"東京都目黒区東山1-5-4 KDX中目黒ビル","・操縦（フライトコース（初級者コース））108000円
・運行管理（スカイチャレンジコース）
・操縦（ビギンコース（中級者コース）） 129600円
・その他（ ドロトレ（e-learning【入門用】主に産業用ドローンの操作方法＆メンテナンス方法や安全対策など、動画やテキストによって分かりやすく指導 / フライトトレーニング）DJSの認定インストラクターにより、毎月60分間×2回（合計120分）の操縦訓練を実施 / ドローンの修理サポート / ライセンス取得）","・全天候型の施設で実施","DPA","http://sky-estate.com/about/index.html",NULL,"2017-07-29 16:07:08",35.6464,139.696
21,"デジタルハリウッドロボティクスアカデミー","デジタルハリウッド株式会社","21.png","東京都",13,"操縦","運行管理",NULL,NULL,NULL,"東京都千代田区神田駿河台4-6 御茶ノ水ソラシティアカデミア","・操縦（エントリープログラム）172800円
・運航管理（JUIDA安全運航管理者証明証）21600円","・ロボティクスアカデミー独自開発の教材をオンラインで視聴し、ご自宅で復習可能","JUIDA","http://www.dhw.co.jp/robotics/",NULL,"2017-07-29 16:07:39",35.6987,139.767
22,"Dアカデミー関東東京校（本部）","Dアカデミー株式会社","22.png","東京都",13,"操縦","運行管理",NULL,NULL,NULL,"東京都千代田区内神田1-2-2","・操縦・運行管理（ i-construction対応4日間コース） 291600円","・i-construcotionに特化した学校です。業務で運用してる方、これからの業務で運用を考えている方に安全運用と毎月業務に役立つセミナーを実施しています。","JUIDA","http://d-academy.co.jp/",NULL,"2017-07-29 16:08:21",35.6903,139.765
23,"DJI CAMP","DJI JAPAN 株式会社","23.png","東京都",13,"操縦",NULL,NULL,NULL,NULL,"東京都港区台場2-3-1 トレードピアお台場","・操縦（DJI CAMPスペシャリスト技能認定）64800円","・世界シェアNo.1のドローンメーカーであるDJIのアフターサービス修理研修エンジニアから直接教わる","DJI","https://docs.google.com/forms/d/e/1FAIpQLScGbXKIXBG8ohfy41iZ3sECnmEOT_StrooMCp_wWON7zEc2NA/viewform?c=0&w=1",NULL,"2017-07-29 16:08:51",35.6279,139.776
24,"ドローンスクールジャパン","株式会社スカイロボット","24.png","東京都",13,"操縦","運行管理",NULL,NULL,"農業","東京都江東区潮見2-8","・操縦（フライトコース（初級者コース））108000円
・運行管理（スカイチャンレジコース）
・農業（農業テクニカルコース） 486000円 
・操縦（ビギンコース（中級者コース）） 129600円
・その他（30分体験コース） 3240円 / （スカイチャレンジコース） 10800円 / （スキルアップコース） 10800円 /?ドロトレ（シミュレーション・ラーニング / フライトトレーニング / ドローンのメンテナンスサポート / ドローンの無料レンタル）","・総面積12,000坪敷地内にあるドローン専用屋内飛行場は、GPS可、広さ約3,000坪、天井高約15mと、世界最大級の屋内ドローン訓練施設で天候に左右されず練習可能
・JR京葉線潮見駅(東京から3駅目)徒歩1分とアクセスが良い","DPA","http://www.skyrobot.co.jp/school.html",NULL,"2017-07-29 16:09:22",35.6588,139.819
25,"ドローン大学校","一般社団法人ドローン大学校",NULL,"東京都",13,"操縦","運行管理","空撮",NULL,NULL,"東京都江東区青海2-7-4","・操縦＋運航管理（JUIDA 操縦技能証明証およびJUIDA 安全運航管理者証明証のための講義） 421200円
・空撮（プロフェッショナルドローン撮影講義） / （ドローン撮影実習） / （プロ機材撮影実習） / （動画編集講義） 
・機体組立（機体製作実習） / （3Dスキャナー･3Dプリンター講義） 
・フライトプログラミング講義（各講義1コマ16200円 4コマ32400円）","・受講料にDJI PHANTOM2やミニドローンの購入代金も含まれており卒業後はもらうことができる
・東京23区内教室兼屋内練習場で学科･屋内実習の受講が可能
・15時半と19時半からの講義が受講可能など、スケジュールに柔軟性がある","JUIDA","http://dronecollege.ac/",NULL,"2017-07-29 17:01:20",35.618,139.775
26,"日本ドローンアカデミー","株式会社ENBUゼミナール",NULL,"東京都",13,"操縦","運行管理",NULL,NULL,NULL,"東京都品川区西五反田2-4-2 東海ビル","・操縦（ドローン操縦士コース）318600円
・運航管理（ドローン安全運行管理者コース）64800円","・常設の屋内練習場で天候に左右されることなく実技講習を行うことが可能","JUIDA","http://drone-a.com",NULL,"2017-07-29 17:02:02",35.6273,139.722
27,"バンタンデザイン研究所キャリアカレッジ","株式会社バンタン",NULL,"東京都",13,"操縦","運行管理","空撮",NULL,NULL,"東京都渋谷区恵比寿西1-3-4","・操縦＋運航管理＋空撮（ドローンパイロット&空撮コース）400000円","・平日にお仕事や学校がある方にも通いやすい、週1日の週末開講
・ドローン業界第一線の企業やプロフェッショナルの実践指導","DPA","http://www.vantan-career.com/drone/",NULL,"2017-07-29 17:02:38",35.6488,139.709
28,"Y'sドローンスクール","Y's カスタマーサポート",NULL,"東京都",13,"操縦","運行管理",NULL,NULL,NULL,"東京都港区高輪4-23-6","・操縦（ドローンパイロット技能研修）310000円
・運航管理（ドローン安全運行管理者コース）54000円 
・その他（ ドローンパイロット技能研修+DJI Phantom4 proパッケージ） 515000円 / （ドローンパイロット技能研修+DJI Mavic Pro Comboパッケージ） 455000円","・平日コースと週末コースが用意されており、スケジュールを合わせやすい","JUIDA","http://ysdroneschool.com",NULL,"2017-07-29 17:03:06",35.626,139.738
29,"ドローン操縦士養成スクール","有限会社トラスト",NULL,"東京都",13,"操縦","運行管理",NULL,NULL,NULL,"東京都中央区日本橋3-3-3 山川ビル","・操縦（ドローン操縦士（パイロット）養成コース）378000円
・運航管理（ドローン安全運航管理者養成コース） 108000円","・座学はJR東京駅から徒歩3分、メトロ銀座線日本橋駅からは徒歩2分と好立地の場所なので、時間を最大限に効率化したい都心のビジネスマンの方の通学に最適","JUIDA","http://www.dronesschool.jp",NULL,"2017-07-29 17:03:31",35.6802,139.771
30,"DJI CAMP","セキド",NULL,"東京都",13,"操縦",NULL,NULL,NULL,NULL,"神奈川県横浜市金沢区福浦1-5-2横浜市金沢産業振興センター","・操縦（DJI CAMP　～DJI スペシャリスト 育成プログラム～）64800円","・運営企業であるセキドは、ドローンの世界最大手であるDJI社の代理店を日本国内で初めてスタートさせた企業であり、ドローン安全運用の豊富なノウハウを有する","DJI","http://sekidocorp.com/workshop_program_n/workshop_program_djicamp/",NULL,"2017-07-29 17:04:00",35.3541,139.648
31,"DRONEBASE湘南足柄","一般社団法人 日本文化交流協会",NULL,"神奈川県",14,"操縦","運行管理",NULL,NULL,NULL,"神奈川県南足柄市矢倉沢1232","・操縦・運行管理（操縦技能コース＋安全運航管理者コース）297000円
・操縦（操縦技能コース）248400円
・運航管理（安全運行管理者コース） 86400円","・1クラス最大3名までの少人数制","JUIDA","http://dronebase.jscx.jp/",NULL,"2017-07-29 17:04:29",35.3325,139.054
32,"厚木ドローンスクール","株式会社エーブレイン",NULL,"神奈川県",14,"操縦","運行管理",NULL,NULL,NULL,"神奈川県厚木市愛甲東1-22-30","・操縦・運行管理（総合コース）351000円
・操縦（操縦技能者コース）307800円
・運航管理（安全運行管理者コース） 43200円","・充実した実技講習（日本では数少ない「マニュアルモード（Attiモードではありません）」での飛行訓練を行います。）
・講習用のドローンはスクールで用意（ドローンはスクールで用意いたします。持ち込みの必要はありません。）
・当スクールで取り扱いのできるドローンであれば受講中でも卒業後でもご購入いただけます。","JUIDA","http://www.abw.co.jp/school/",NULL,"2017-07-29 17:04:57",35.4148,139.349
33,"サイトテック株式会社","サイトテック株式会社",NULL,"山梨県",19,"操縦","運行管理",NULL,"測量",NULL,"山梨県南巨摩郡身延町寺沢3250","・操縦＋運航管理（【機体持込コース】JUIDA認定 操縦士・安全運航管理者セミナー）345600円
・運行管理（【機体レンタルコース】JUIDA認定 操縦士・安全運航管理者セミナー ） 378000円
・測量（UAV土量測量空撮スタートアップコース）無料 /（UAV土量測量空撮データ作成検証コース） 102600円 
・機体組立（ドカヘリ組立セミナー）108000円 
・その他（ スタートアップコース 無料）","・ドローンの開発・製造も行っている","JUIDA","http://www.saitotec.com/",NULL,"2017-07-29 17:05:36",35.4705,138.442
34,"日本航空学園","公益財団法人日本航空教育協会",NULL,"山梨県",19,"操縦",NULL,NULL,NULL,NULL,"山梨県甲斐市宇津谷445","・操縦（ドローンパイロットライセンス取得コース） 216000円","・モーターグライダーの体験搭乗を行う","JUIDA","http://www.jaeazaidan.org",NULL,"2017-07-29 17:06:08",35.6834,138.48
35,"エアフィールド・アイ","株式会社安寿の里のりくら",NULL,"長野県",20,"操縦","運行管理",NULL,NULL,NULL,"長野県安曇野市三郷小倉3909-2","・操縦＋運航管理（フライト講習（3日））85000円
・その他（基本習得コース（1日））30000円","・空撮サービスや機体販売も行う","JUIDA","https://www.air-f-ai.biz/%E3%82%B5%E3%83%BC%E3%83%93%E3%82%B9/%E3%83%95%E3%83%A9%E3%82%A4%E3%83%88%E8%AC%9B%E7%BF%92%E4%BC%9A/",NULL,"2017-07-29 17:06:41",36.2616,137.861
36,"信州・北信濃ドローンスクール","株式会社ラポーザ",NULL,"長野県",20,"操縦","運行管理",NULL,NULL,NULL,"長野県長野市往生地1423-2","・操縦（ドローン操縦士（パイロット）養成コース）270000円
・運航管理（ドローン安全運航管理者養成コース） 108000円","・長野県下で初のJUIDA（一般社団法人日本UAS産業振興協議会）認定スクール","JUIDA","http://drone.raposa.jp",NULL,"2017-07-29 17:07:16",36.6637,138.182
37,"【準備中】炭平コーポレーション株式会社","炭平コーポレーション株式会社",NULL,"長野県",20,NULL,NULL,NULL,NULL,NULL,"長野県松本市笹賀7804","準備中","準備中","JUIDA","http://www.sumihei.co.jp/index.php",NULL,"2017-07-29 17:07:45",36.203,137.937
38,"Dアカデミー北陸　金沢校","有限会社エルダーシステムコンサルタンツ",NULL,"石川県",17,"操縦","運行管理",NULL,NULL,NULL,"石川県野々市市野代3-143-106","・操縦・運行管理（ドローン操縦士&安全運航管理者養成コース（４日間））270000円","・i-construction（無人航空機運行部門）対応スクールです。","JUIDA","http://drone.inuwashi.info/index.html",NULL,"2017-07-29 17:13:50",36.5433,136.603
39,"ドローンパイロットアカデミー東海","合同会社 空創技研プロペラ",NULL,"岐阜県",21,"操縦","運行管理","空撮","測量",NULL,"岐阜県各務原市テクノプラザ1-1 VRテクノセンター","・操縦＋運航管理（スタンダードコース）90000円
・空撮（アドバンスコース【2日間】） 130000円 
・測量（計測コース【1日】） 90000円 
・その他（ ビジネス研修（人数制限なし。ドローンの仕組みから、利活用の最前線まで学び、最後に小型のドローンを体験）） 40000円","・利用シーンを想定した指導で、ユーザーが今後使うであろうシーンを想定したカリキュラムを用意している。特に活用の機会が多い建設、測量や、定番の映像分野においては力を入れている。","独自","http://www.dpa-cent.com/#course",NULL,"2017-07-29 17:14:41",35.4265,136.889
40,"ドローンスクール静岡","株式会社Queen Bee and Drone",NULL,"静岡県",22,"操縦","運行管理",NULL,"測量",NULL,"静岡県静岡市葵区紺屋町17-1 葵タワー","・操縦＋運航管理（一般初級コース）420120円
・測量（ICT測量土木実践初級コース） 429840円 
・運航管理（安全運航管理者講座） 86400円【団体割引】","・全ての研修は、軽飛行機・モーターグライダー・ヘリコプター免許保持者を含むJUIDA認定講師(15名)が指導
・技能訓練場は雨天でも使用可能で、座学は夜間講座の用意もあるので、忙しい方にも無理なく受講することが可能
・万全なアフターサポートにより実技試験合格まで追加費用が発生しない。（但しチャレンジコースは除く）
・自習（自宅学習）用フライトシミュレーターを受講期間中自宅への持帰り可能な無料レンタルあり
・操縦技能向上のための弊校専用訓練場で、高高度撮影や測量などテーマ別にフォローアップあり。（卒業生も利用可能）
・国土交通省への許可・承認申請書の作成アドバイスあり","JUIDA","http://queenbee-and-drone.com/",NULL,"2017-07-29 17:15:22",34.9725,138.387
41,"ドローンスクールジャパン静岡掛川校","株式会社長尾機設",NULL,"静岡県",22,"操縦",NULL,NULL,NULL,NULL,"静岡県掛川市萩間423","・操縦（フライトコース）108000円
・操縦（ ビギンズコース【2日間】） 129600円
・その他（体験コース【120分】）10800円 / （フォローアップコース【120分】） 10800円 / （スキルアップコース【半日】） 10800円","・全天候に対応し、屋内・屋外の両方に練習場を完備。雨でも風でも、天候を問わずコーススケジュールを進めることができる
・安心の教習システムで、練習専用機を用意。初めての操縦も受講者のコントローラーは講師が持つコントローラーに繋がれているため、もしもの時は講師のコントローラーで安全な練習が可能。
・目的に合わせたコース設定で、赤外線探査解析や、空撮、3Dマッピング、もちろん操縦のスキルアップまで、目的に合わせたコースあり。","DPA","http://drone.nagao-inc.com/",NULL,"2017-07-29 17:15:48",34.8657,138.019
42,"DJI CAMP","KACHISUTA",NULL,"静岡県",22,"操縦",NULL,NULL,NULL,NULL,"静岡県浜松市北区引佐町渋川3484","・操縦（講座名なし）86400円","・講習会場は小学校跡地。","DJI","https://docs.google.com/forms/d/e/1FAIpQLSc0Nnw6lUFEKkvncRX1XsPQ15mCiNzGNJusDosRNdOyAd9KxA/viewform?c=0&w=1",NULL,"2017-07-29 17:16:39",34.9248,137.689
43,"日本DMC株式会社　静岡校","日本DMC株式会社",NULL,"静岡県",22,"操縦","運行管理",NULL,NULL,NULL,"静岡県静岡市駿河区栗原19-1 静岡県草薙総合運動場","・操縦（操縦技能者養成講座：サポート有）※サポート内容：実技検定不可の時の追加検定料無料（1年間）・定期的に開催されるフライト練習への参加費用無料
・その他（操縦技能者養成講座【サポート無】） 270000円","・静岡県浜松市、静岡県静岡市、静岡県沼津市にてスクールを開校しており、受講者の居住地と日程に合わせて開催校を選択することが可能。
・ライセンスC以上を取得された方は、【Pix4D】を使用した自動航行の訓練に参加できる。
・法人で受講する場合、「厚生労働省キャリア形成促進助成金」の対象になる。
・行政書士による飛行禁止区域の飛行許可申請作成講座の実施。（カリキュラムに含む。）","JUIDA","http://ndmc.co.jp/guide_kouza_shizuoka/",NULL,"2017-07-29 17:17:17",34.9884,138.427
44,"日本DMC株式会社　浜松校","日本DMC株式会社",NULL,"静岡県",22,"操縦","運行管理",NULL,NULL,NULL,"静岡県浜松市西区雄踏町宇布見9984-1浜松市雄踏総合公園 多目的スポーツ広場","・操縦（操縦技能者養成講座：サポート有）※サポート内容：実技検定不可の時の追加検定料無料（1年間）・定期的に開催されるフライト練習への参加費用無料
・その他（操縦技能者養成講座【サポート無】） 270000円","・静岡県浜松市、静岡県静岡市、静岡県沼津市にてスクールを開校しており、受講者の居住地と日程に合わせて開催校を選択することが可能。
・ライセンスC以上を取得された方は、【Pix4D】を使用した自動航行の訓練に参加できる。
・法人で受講する場合、「厚生労働省キャリア形成促進助成金」の対象になる。
・行政書士による飛行禁止区域の飛行許可申請作成講座の実施。（カリキュラムに含む。）","JUIDA","http://ndmc.co.jp/guide_kouza_hamamatsu/",NULL,"2017-07-29 17:18:05",34.7025,137.614
45,"日本DMC株式会社　沼津校","日本DMC株式会社",NULL,"静岡県",22,"操縦","運行管理",NULL,NULL,NULL,"静岡県沼津市足高202 愛鷹広域公園","・操縦（操縦技能者養成講座：サポート有）※サポート内容：実技検定不可の時の追加検定料無料（1年間）・定期的に開催されるフライト練習への参加費用無料
・その他（操縦技能者養成講座【サポート無】） 270000円","・静岡県浜松市、静岡県静岡市、静岡県沼津市にてスクールを開校しており、受講者の居住地と日程に合わせて開催校を選択することが可能。
・ライセンスC以上を取得された方は、【Pix4D】を使用した自動航行の訓練に参加できる。
・法人で受講する場合、「厚生労働省キャリア形成促進助成金」の対象になる。
・行政書士による飛行禁止区域の飛行許可申請作成講座の実施。（カリキュラムに含む。）","JUIDA","http://ndmc.co.jp/guide_kouza/",NULL,"2017-07-29 17:18:43",35.1569,138.852
46,"ドローン大学校 名古屋キャンパス","一般社団法人ドローン大学校",NULL,"愛知県",23,"操縦","運行管理",NULL,NULL,NULL,"愛知県名古屋市中村区名駅1-1-1 JPタワー","・操縦＋運航管理（操縦技能・安全運航管理者コース）421200円","・受講料にDJI PHANTOM2やミニドローンの購入代金も含まれており卒業後はもらうことができる
・平日は19時～22時に講義等、サラリーマンの方などにも受講可能な、柔軟なスケジュール","JUIDA","http://dronecollege.ac/nagoya/",NULL,"2017-07-29 17:19:31",35.1731,136.882
47,"【開校準備中】豊田ドローンスクール","株式会社フカデン",NULL,"愛知県",23,NULL,NULL,NULL,NULL,NULL,"愛知県豊田市深田町1-19-3","準備中","準備中","JUIDA","http://www.fukaden.co.jp",NULL,"2017-07-29 17:20:11",35.0684,137.126
48,"アイオス・無人航空機スクール","株式会社アイオス",NULL,"三重県",24,"操縦","運行管理",NULL,NULL,NULL,"三重県四日市市北浜田町1番20号","・操縦（JUIDA操作技能スクール）216000円
・操縦・運航管理（JUIDA操作技能スクール3日間、JUIDA安全運航管理者スクール1日間 同時受講4日間スクール）291600円 
・運航管理（JUIDA安全運航管理者スクール）75600円","・三重県に唯一のドローンスクール","JUIDA","http://www.i-os.co.jp",NULL,"2017-07-29 17:20:36",34.9631,136.622
49,"ドローン撮影クリエイターズ協会","一般社団法人ドローン撮影クリエイターズ協会",NULL,"京都府",26,"操縦","運行管理","空撮",NULL,NULL,"京都府京都市南区東九条西岩本町10-2 イリアス","・操縦＋運航管理（Bコース（空撮カメラワーク講座含まない）非会員）226800円
・操縦＋運航管理＋空撮（Aコース【空撮カメラワーク講座含む】）非会員 291600円","・インストラクターにはフォトグラファーが多く在籍しており、様々な空撮案件の実績を誇る","JUIDA","http://www.dpca-japan.org/",NULL,"2017-07-29 17:21:20",34.9833,135.763
50,"ドローンスクールジャパン大阪豊中校","株式会社スカイアスキー",NULL,"大阪府",27,"操縦","運行管理","空撮",NULL,NULL,"大阪府豊中市勝部1-5-20","・操縦（フライトコース）129600円
・操縦（ビジネスコース） 216000円・空撮（空撮コース）54000円
・その他（赤外線検査コース） 64800円 / （チャレンジコース） 10800円 / （現場出張コース） 応相談","・西日本で唯一の屋内施設の飛行場を完備しているドローンスクール。屋内のため、天候に左右されず飛行訓練を行うことができます。","DPA","http://drone-school.osaka",NULL,"2017-07-29 17:21:55",34.7744,135.456
51,"関西ドロ－ン安全協議会 大阪スク－ル","一般社団法人関西ドローン安全協議会",NULL,"大阪府",27,"操縦","運行管理",NULL,NULL,NULL,"大阪府大阪市北区西天満1-2-5 大阪JAビル","・操縦＋運航管理（無人航空機操縦技能コース・安全運航管理者養成コース）248400円","・豊富な講師陣
　操縦経験1000時間以上の超ベテランから、土木関係の測量や現場踏査・点検などの実務従事者、テレビ局や報道関係の空撮業務を長年こなしている講師陣が親切丁寧に指導。
・振替受講・試験ができる
　座学または実技試験を不合格となった場合の再試験や講座中断した場合の振替受講も、定員数を超過しない限り次回の各会場を自由に選択して頂くことが可能。
・実機重視実技講習
　屋外会場が雨天などで講習が出来ないような場合、本スク－ルではシミュレ－タ－で時間確保するのではなく、あくまで屋外にて実機による振替講習を基本としている。
・修了者へのアフタ－フォロ－
　本スク－ルの豊富な会場を利用して『公開練習飛行会』に優先的に参加することが出来る。","JUIDA","http://www.drone-safety.jp/",NULL,"2017-07-29 17:22:38",34.6937,135.508
52,"関西ドロ－ン安全協議会 滋賀スク－ル","一般社団法人関西ドローン安全協議会",NULL,"滋賀県",25,"操縦","運行管理",NULL,NULL,NULL,NULL,"・操縦＋運航管理（無人航空機操縦技能コース・安全運航管理者養成コース）248400円","・豊富な講師陣
　操縦経験1000時間以上の超ベテランから、土木関係の測量や現場踏査・点検などの実務従事者、テレビ局や報道関係の空撮業務を長年こなしている講師陣が親切丁寧に指導。
・振替受講・試験ができる
　座学または実技試験を不合格となった場合の再試験や講座中断した場合の振替受講も、定員数を超過しない限り次回の各会場を自由に選択して頂くことが可能。
・実機重視実技講習
　屋外会場が雨天などで講習が出来ないような場合、本スク－ルではシミュレ－タ－で時間確保するのではなく、あくまで屋外にて実機による振替講習を基本としている。
・修了者へのアフタ－フォロ－
　本スク－ルの豊富な会場を利用して『公開練習飛行会』に優先的に参加することが出来る。","JUIDA","http://www.drone-safety.jp/",NULL,NULL,NULL,NULL
53,"Dアカデミー 近畿大阪校","株式会社未来図",NULL,"大阪府",27,"操縦","運行管理",NULL,NULL,NULL,NULL,"・操縦＋運航管理（操縦士技能＋安全運航管理者4日間コース）291600円","・i-construction（無人航空機運航部門）対応スクール。※4日間のカリキュラム内にi-constructionの講習あり","JUIDA","http://milaizu.co.jp/",NULL,NULL,NULL,NULL
54,"国際航業株式会社　兵庫","国際航業株式会社",NULL,"兵庫県",28,"操縦","運行管理",NULL,"測量",NULL,NULL,"・操縦＋運航管理＋3次元計測（ドローン（UAV）運航・３次元計測スクール）291600円","・基本的知識を学ぶ座学、基本的操縦の内容に加えて、3次元計測までカリキュラムに含まれているので3次元計測も学びたい初心者に最適","JUIDA","https://uav-school.resv.jp/",NULL,NULL,NULL,NULL
55,"ドローン活用技能スクール 兵庫但馬スクール","一般社団法人UAS多用推進技術会",NULL,"兵庫県",28,"操縦","運行管理",NULL,"測量",NULL,NULL,"・操縦（操縦技能スクール（3日間））162000円　※JUIDAへの証明書発行は個人申請のため費用は別途個人負担となります。
・運航管理（安全運航管理者スクール【1日】） 54000円 
・測量（i-Con測量コース【1日】） 54000円 / （i-Con設計施工計画・検査コース【1日】） 54000円","・ドローンの操縦だけではなく、測量についても学ぶことができる","JUIDA","http://umta.jp/page03.html#bosyu",NULL,NULL,NULL,NULL
56,NULL,NULL,NULL,NULL,NULL,NULL,NULL,NULL,NULL,NULL,NULL,NULL,NULL,NULL,NULL,NULL,NULL,NULL,NULL
57,NULL,NULL,NULL,NULL,NULL,NULL,NULL,NULL,NULL,NULL,NULL,NULL,NULL,NULL,NULL,NULL,NULL,NULL,NULL
58,NULL,NULL,NULL,NULL,NULL,NULL,NULL,NULL,NULL,NULL,NULL,NULL,NULL,NULL,NULL,NULL,NULL,NULL,NULL
69,NULL,NULL,NULL,NULL,NULL,NULL,NULL,NULL,NULL,NULL,NULL,NULL,NULL,NULL,NULL,NULL,NULL,NULL,NULL
70,NULL,NULL,NULL,NULL,NULL,NULL,NULL,NULL,NULL,NULL,NULL,NULL,NULL,NULL,NULL,NULL,NULL,NULL,NULL
71,NULL,NULL,NULL,NULL,NULL,NULL,NULL,NULL,NULL,NULL,NULL,NULL,NULL,NULL,NULL,NULL,NULL,NULL,NULL
